GPS BIIR-2  (PRN 13)    
1 24876C 97035A   23249.69756944 -.00000000  00000-0  00000-0 0  2490
2 24876  55.5883 138.2531 0072687  52.3468  25.4365  2.00564156    19
GPS BIIR-4  (PRN 20)    
1 26360C 00025A   23249.69756944 -.00000000  00000-0  00000-0 0  2493
2 26360  54.4341  60.5043 0041455 199.2940 327.5536  2.00570966    18
GPS BIIR-5  (PRN 22)    
1 26407C 00040A   23249.69756944  .00000000  00000-0  00000-0 0  2491
2 26407  55.2019 255.5060 0155614 291.4692  78.0795  2.00570992    12
GPS BIIR-8  (PRN 16)    
1 27663C 03005A   23249.69756944  .00000000  00000-0  00000-0 0  2490
2 27663  55.2438 255.3160 0131910  44.7270 101.8135  2.00566119    14
GPS BIIR-9  (PRN 21)    
1 27704C 03010A   23249.69756944 -.00000000  00000-0  00000-0 0  2493
2 27704  55.1161   5.2752 0248823 318.7790  46.1159  2.00575206    18
GPS BIIR-11 (PRN 19)    
1 28190C 04009A   23249.69756944  .00000000  00000-0  00000-0 0  2491
2 28190  55.6882 316.3761 0092917 138.8515 164.0915  2.00567359    16
GPS BIIR-13 (PRN 02)    
1 28474C 04045A   23249.69756944 -.00000000  00000-0  00000-0 0  2497
2 28474  55.4430   5.5973 0162457 282.6049  75.9014  2.00580191    16
GPS BIIRM-1 (PRN 17)    
1 28874C 05038A   23249.69756944  .00000000  00000-0  00000-0 0  2493
2 28874  55.7393 313.8282 0139620 279.5060  45.0287  2.00575617    10
GPS BIIRM-2 (PRN 31)    
1 29486C 06042A   23249.69756944  .00000000  00000-0  00000-0 0  2499
2 29486  54.6856 191.5620 0103122  32.1248 194.0236  2.00569541    16
GPS BIIRM-3 (PRN 12)    
1 29601C 06052A   23249.69756944  .00000000  00000-0  00000-0 0  2499
2 29601  55.2647 254.2754 0083305  79.4524 205.4222  2.00549881    13
GPS BIIRM-4 (PRN 15)    
1 32260C 07047A   23249.69756944 -.00000000  00000-0  00000-0 0  2490
2 32260  53.4658 122.0435 0151535  70.6590 347.8066  2.00551592    14
GPS BIIRM-5 (PRN 29)    
1 32384C 07062A   23249.69756944  .00000000  00000-0  00000-0 0  2493
2 32384  55.8714 314.6496 0024948 150.5981  36.4827  2.00559169    19
GPS BIIRM-6 (PRN 07)    
1 32711C 08012A   23249.69756944  .00000000  00000-0  00000-0 0  2493
2 32711  54.4532 190.3924 0177596 235.8551 241.2850  2.00557160    10
GPS BIIRM-8 (PRN 05)    
1 35752C 09043A   23249.69756944 -.00000000  00000-0  00000-0 0  2497
2 35752  55.4353  67.6218 0058448  69.0640  66.4947  2.00558127    10
GPS BIIF-1  (PRN 25)    
1 36585C 10022A   23249.69756944  .00000000  00000-0  00000-0 0  2490
2 36585  54.5641 249.4910 0109258  59.7017 192.3977  2.00562299    11
GPS BIIF-3  (PRN 24)    
1 38833C 12053A   23249.69756944  .00000000  00000-0  00000-0 0  2494
2 38833  53.5140 185.0964 0142109  51.9613 300.2486  2.00567306    13
GPS BIIF-4  (PRN 27)    
1 39166C 13023A   23249.69756944  .00000000  00000-0  00000-0 0  2492
2 39166  55.3545 310.0228 0114213  41.7308  49.5773  2.00564483    13
GPS BIIF-5  (PRN 30)    
1 39533C 14008A   23249.69756944  .00000000  00000-0  00000-0 0  2494
2 39533  53.6012 190.6541 0067259 215.7433 235.1465  2.00551718    18
GPS BIIF-6  (PRN 06)    
1 39741C 14026A   23249.69756944 -.00000000  00000-0  00000-0 0  2496
2 39741  56.6972  10.8971 0029116 310.7364 297.0858  2.00557097    15
GPS BIIF-7  (PRN 09)    
1 40105C 14045A   23249.69756944 -.00000000  00000-0  00000-0 0  2493
2 40105  54.8137 128.9781 0024924 113.1451  74.8581  2.00578072    18
GPS BIIF-8  (PRN 03)    
1 40294C 14068A   23249.69756944 -.00000000  00000-0  00000-0 0  2497
2 40294  56.1787  70.3666 0049203  61.9530 213.8052  2.00572187    19
GPS BIIF-9  (PRN 26)    
1 40534C 15013A   23249.69756944  .00000000  00000-0  00000-0 0  2494
2 40534  53.4631 246.1918 0080400  25.3523 151.9839  2.00554779    19
GPS BIIF-10 (PRN 08)    
1 40730C 15033A   23249.69756944  .00000000  00000-0  00000-0 0  2494
2 40730  54.8429 308.6358 0085209  13.9758  46.5020  2.00555360    12
GPS BIIF-11 (PRN 10)    
1 41019C 15062A   23249.69756944 -.00000000  00000-0  00000-0 0  2498
2 41019  56.1626  70.2166 0089084 221.0163 160.5516  2.00562550    19
GPS BIIF-12 (PRN 32)    
1 41328C 16007A   23249.69756944 -.00000000  00000-0  00000-0 0  2491
2 41328  55.0182 129.7571 0071389 233.9114  81.3705  2.00575665    15
GPS BIII-1  (PRN 04)    
1 43873C 18109A   23249.69756944 -.00000000  00000-0  00000-0 0  2493
2 43873  55.1936 132.2725 0025640 191.0790  20.1367  2.00569092    15
GPS BIII-2  (PRN 18)    
1 44506C 19056A   23249.69756944 -.00000000  00000-0  00000-0 0  2499
2 44506  55.8221  11.3466 0037001 185.2694 285.5346  2.00565680    17
GPS BIII-3  (PRN 23)    
1 45854C 20041A   23249.69756944 -.00000000  00000-0  00000-0 0  2492
2 45854  55.8841  68.6292 0036136 186.0436 228.1303  2.00563702    14
GPS BIII-4  (PRN 14)    
1 46826C 20078A   23249.69756944  .00000000  00000-0  00000-0 0  2491
2 46826  54.3107 251.9681 0036012 194.6873 194.9778  2.00563064    12
GPS BIII-5  (PRN 11)    
1 48859C 21054A   23249.69756944 -.00000000  00000-0  00000-0 0  2495
2 48859  55.3394  13.1313 0012281 211.4700   0.5855  2.00573602    15
GPS BIII-6  (PRN 28)    
1 55268C 23009A   23249.69756944  .00000000  00000-0  00000-0 0  2498
2 55268  55.0915 188.3215 0004325  91.6964 161.6321  2.00555528    13
